{"type": "FeatureCollection", "features": [{"type": "Feature", "properties": {"norad_id": 24876, "name": "GPS BIIR-2  (PRN 13)", "group": "gps-ops", "lat": 29.43329721651122, "lon": -96.41140999566085, "alt_km": 20161.070235820047, "timestamp": "2025-12-07T22:37:43.338285+00:00", "meta": {"OBJECT_NAME": "GPS BIIR-2  (PRN 13)", "OBJECT_ID": "1997-035A", "EPOCH": "2025-12-07T05:57:31.204512", "MEAN_MOTION": 2.005635, "ECCENTRICITY": 0.00967197, "INCLINATION": 55.8926, "RA_OF_ASC_NODE": 106.0837, "ARG_OF_PERICENTER": 57.0181, "MEAN_ANOMALY": 303.8748, "EPHEMERIS_TYPE": 0, "CLASSIFICATION_TYPE": "U", "NORAD_CAT_ID": 24876, "ELEMENT_SET_NO": 999, "REV_AT_EPOCH": 20810, "BSTAR": 0, "MEAN_MOTION_DOT": 9e-08, "MEAN_MOTION_DDOT": 0}, "tle": {"line1": "1 24876U 97035A   25341.24827783  .00000009  00000+0  00000+0 0  9994", "line2": "2 24876  55.8926 106.0837 0096719  57.0181 303.8748  2.00563500208108"}}, "geometry": {"type": "Point", "coordinates": [-96.41140999566085, 29.43329721651122]}}, {"type": "Feature", "properties": {"norad_id": 26360, "name": "GPS BIIR-4  (PRN 20)", "group": "gps-ops", "lat": -41.673592934973335, "lon": -114.46299428726341, "alt_km": 20084.185515970785, "timestamp": "2025-12-07T22:37:43.338334+00:00", "meta": {"OBJECT_NAME": "GPS BIIR-4  (PRN 20)", "OBJECT_ID": "2000-025A", "EPOCH": "2025-12-07T03:09:12.331872", "MEAN_MOTION": 2.00568032, "ECCENTRICITY": 0.00388288, "INCLINATION": 55.0418, "RA_OF_ASC_NODE": 27.0648, "ARG_OF_PERICENTER": 241.4486, "MEAN_ANOMALY": 126.9081, "EPHEMERIS_TYPE": 0, "CLASSIFICATION_TYPE": "U", "NORAD_CAT_ID": 26360, "ELEMENT_SET_NO": 999, "REV_AT_EPOCH": 18742, "BSTAR": 0, "MEAN_MOTION_DOT": -8.1e-07, "MEAN_MOTION_DDOT": 0}, "tle": {"line1": "1 26360U 00025A   25341.13139273 -.00000081  00000+0  00000+0 0  9996", "line2": "2 26360  55.0418  27.0648 0038828 241.4486 126.9081  2.00568032187422"}}, "geometry": {"type": "Point", "coordinates": [-114.46299428726341, -41.673592934973335]}}, {"type": "Feature", "properties": {"norad_id": 26407, "name": "GPS BIIR-5  (PRN 22)", "group": "gps-ops", "lat": 52.162079790818716, "lon": -72.40921015901874, "alt_km": 20402.338769061203, "timestamp": "2025-12-07T22:37:43.338361+00:00", "meta": {"OBJECT_NAME": "GPS BIIR-5  (PRN 22)", "OBJECT_ID": "2000-040A", "EPOCH": "2025-12-07T02:24:01.548288", "MEAN_MOTION": 2.00567789, "ECCENTRICITY": 0.01263153, "INCLINATION": 54.8922, "RA_OF_ASC_NODE": 222.7933, "ARG_OF_PERICENTER": 301.7055, "MEAN_ANOMALY": 243.5801, "EPHEMERIS_TYPE": 0, "CLASSIFICATION_TYPE": "U", "NORAD_CAT_ID": 26407, "ELEMENT_SET_NO": 999, "REV_AT_EPOCH": 18609, "BSTAR": 0, "MEAN_MOTION_DOT": 3.3e-07, "MEAN_MOTION_DDOT": 0}, "tle": {"line1": "1 26407U 00040A   25341.10001792  .00000033  00000+0  00000+0 0  9992", "line2": "2 26407  54.8922 222.7933 0126315 301.7055 243.5801  2.00567789186099"}}, "geometry": {"type": "Point", "coordinates": [-72.40921015901874, 52.162079790818716]}}, {"type": "Feature", "properties": {"norad_id": 27663, "name": "GPS BIIR-8  (PRN 16)", "group": "gps-ops", "lat": -24.383430397025545, "lon": 61.13510691221379, "alt_km": 20548.312878244928, "timestamp": "2025-12-07T22:37:43.338378+00:00", "meta": {"OBJECT_NAME": "GPS BIIR-8  (PRN 16)", "OBJECT_ID": "2003-005A", "EPOCH": "2025-12-06T16:05:33.383328", "MEAN_MOTION": 2.00571142, "ECCENTRICITY": 0.01472147, "INCLINATION": 54.9248, "RA_OF_ASC_NODE": 222.6198, "ARG_OF_PERICENTER": 51.718, "MEAN_ANOMALY": 319.2598, "EPHEMERIS_TYPE": 0, "CLASSIFICATION_TYPE": "U", "NORAD_CAT_ID": 27663, "ELEMENT_SET_NO": 999, "REV_AT_EPOCH": 16745, "BSTAR": 0, "MEAN_MOTION_DOT": 3.9e-07, "MEAN_MOTION_DDOT": 0}, "tle": {"line1": "1 27663U 03005A   25340.67052527  .00000039  00000+0  00000+0 0  9990", "line2": "2 27663  54.9248 222.6198 0147214  51.7180 319.2598  2.00571142167451"}}, "geometry": {"type": "Point", "coordinates": [61.13510691221379, -24.383430397025545]}}, {"type": "Feature", "properties": {"norad_id": 28190, "name": "GPS BIIR-11 (PRN 19)", "group": "gps-ops", "lat": 6.690808234264469, "lon": -71.89506865471994, "alt_km": 20450.762906172768, "timestamp": "2025-12-07T22:37:43.338394+00:00", "meta": {"OBJECT_NAME": "GPS BIIR-11 (PRN 19)", "OBJECT_ID": "2004-009A", "EPOCH": "2025-12-07T01:08:17.943360", "MEAN_MOTION": 2.00560868, "ECCENTRICITY": 0.01082706, "INCLINATION": 54.9909, "RA_OF_ASC_NODE": 283.4484, "ARG_OF_PERICENTER": 167.5454, "MEAN_ANOMALY": 274.5396, "EPHEMERIS_TYPE": 0, "CLASSIFICATION_TYPE": "U", "NORAD_CAT_ID": 28190, "ELEMENT_SET_NO": 999, "REV_AT_EPOCH": 15909, "BSTAR": 0, "MEAN_MOTION_DOT": -4.1e-07, "MEAN_MOTION_DDOT": 0}, "tle": {"line1": "1 28190U 04009A   25341.04742990 -.00000041  00000+0  00000+0 0  9997", "line2": "2 28190  54.9909 283.4484 0108270 167.5454 274.5396  2.00560868159096"}}, "geometry": {"type": "Point", "coordinates": [-71.89506865471994, 6.690808234264469]}}, {"type": "Feature", "properties": {"norad_id": 28474, "name": "GPS BIIR-13 (PRN 02)", "group": "gps-ops", "lat": 50.652635053178564, "lon": 30.454007051508313, "alt_km": 20406.34181872399, "timestamp": "2025-12-07T22:37:43.338411+00:00", "meta": {"OBJECT_NAME": "GPS BIIR-13 (PRN 02)", "OBJECT_ID": "2004-045A", "EPOCH": "2025-12-07T07:43:52.701600", "MEAN_MOTION": 2.00569101, "ECCENTRICITY": 0.0170659, "INCLINATION": 55.2433, "RA_OF_ASC_NODE": 332.6237, "ARG_OF_PERICENTER": 309.0153, "MEAN_ANOMALY": 31.3735, "EPHEMERIS_TYPE": 0, "CLASSIFICATION_TYPE": "U", "NORAD_CAT_ID": 28474, "ELEMENT_SET_NO": 999, "REV_AT_EPOCH": 15457, "BSTAR": 0, "MEAN_MOTION_DOT": -8.1e-07, "MEAN_MOTION_DDOT": 0}, "tle": {"line1": "1 28474U 04045A   25341.32213775 -.00000081  00000+0  00000+0 0  9991", "line2": "2 28474  55.2433 332.6237 0170659 309.0153  31.3735  2.00569101154572"}}, "geometry": {"type": "Point", "coordinates": [30.454007051508313, 50.652635053178564]}}, {"type": "Feature", "properties": {"norad_id": 28874, "name": "GPS BIIRM-1 (PRN 17)", "group": "gps-ops", "lat": 23.26821441192394, "lon": -61.63612237012848, "alt_km": 20206.38941173703, "timestamp": "2025-12-07T22:37:43.338424+00:00", "meta": {"OBJECT_NAME": "GPS BIIRM-1 (PRN 17)", "OBJECT_ID": "2005-038A", "EPOCH": "2025-12-07T01:11:23.790624", "MEAN_MOTION": 2.00578663, "ECCENTRICITY": 0.01318312, "INCLINATION": 55.0371, "RA_OF_ASC_NODE": 280.93, "ARG_OF_PERICENTER": 293.3412, "MEAN_ANOMALY": 168.926, "EPHEMERIS_TYPE": 0, "CLASSIFICATION_TYPE": "U", "NORAD_CAT_ID": 28874, "ELEMENT_SET_NO": 999, "REV_AT_EPOCH": 14798, "BSTAR": 0, "MEAN_MOTION_DOT": -3.8e-07, "MEAN_MOTION_DDOT": 0}, "tle": {"line1": "1 28874U 05038A   25341.04958091 -.00000038  00000+0  00000+0 0  9996", "line2": "2 28874  55.0371 280.9300 0131831 293.3412 168.9260  2.00578663147983"}}, "geometry": {"type": "Point", "coordinates": [-61.63612237012848, 23.26821441192394]}}, {"type": "Feature", "properties": {"norad_id": 29486, "name": "GPS BIIRM-2 (PRN 31)", "group": "gps-ops", "lat": -50.13083884592302, "lon": 100.83554558423329, "alt_km": 20337.669141051716, "timestamp": "2025-12-07T22:37:43.338436+00:00", "meta": {"OBJECT_NAME": "GPS BIIRM-2 (PRN 31)", "OBJECT_ID": "2006-042A", "EPOCH": "2025-12-06T13:25:33.106944", "MEAN_MOTION": 2.00554295, "ECCENTRICITY": 0.01073619, "INCLINATION": 54.6932, "RA_OF_ASC_NODE": 158.9861, "ARG_OF_PERICENTER": 51.8104, "MEAN_ANOMALY": 320.1566, "EPHEMERIS_TYPE": 0, "CLASSIFICATION_TYPE": "U", "NORAD_CAT_ID": 29486, "ELEMENT_SET_NO": 999, "REV_AT_EPOCH": 14053, "BSTAR": 0, "MEAN_MOTION_DOT": 6.3e-07, "MEAN_MOTION_DDOT": 0}, "tle": {"line1": "1 29486U 06042A   25340.55941096  .00000063  00000+0  00000+0 0  9991", "line2": "2 29486  54.6932 158.9861 0107361  51.8104 320.1566  2.00554295140533"}}, "geometry": {"type": "Point", "coordinates": [100.83554558423329, -50.13083884592302]}}, {"type": "Feature", "properties": {"norad_id": 29601, "name": "GPS BIIRM-3 (PRN 12)", "group": "gps-ops", "lat": -10.5299509067008, "lon": -145.8877653526703, "alt_km": 20222.321799278387, "timestamp": "2025-12-07T22:37:43.338448+00:00", "meta": {"OBJECT_NAME": "GPS BIIRM-3 (PRN 12)", "OBJECT_ID": "2006-052A", "EPOCH": "2025-12-06T23:07:38.134848", "MEAN_MOTION": 2.0057305, "ECCENTRICITY": 0.00876251, "INCLINATION": 54.9717, "RA_OF_ASC_NODE": 221.6275, "ARG_OF_PERICENTER": 87.379, "MEAN_ANOMALY": 273.714, "EPHEMERIS_TYPE": 0, "CLASSIFICATION_TYPE": "U", "NORAD_CAT_ID": 29601, "ELEMENT_SET_NO": 999, "REV_AT_EPOCH": 13955, "BSTAR": 0, "MEAN_MOTION_DOT": 3.6e-07, "MEAN_MOTION_DDOT": 0}, "tle": {"line1": "1 29601U 06052A   25340.96363582  .00000036  00000+0  00000+0 0  9994", "line2": "2 29601  54.9717 221.6275 0087625  87.3790 273.7140  2.00573050139559"}}, "geometry": {"type": "Point", "coordinates": [-145.8877653526703, -10.5299509067008]}}, {"type": "Feature", "properties": {"norad_id": 32260, "name": "GPS BIIRM-4 (PRN 15)", "group": "gps-ops", "lat": 38.509160353262985, "lon": -127.40850271300587, "alt_km": 19862.980556088736, "timestamp": "2025-12-07T22:37:43.338461+00:00", "meta": {"OBJECT_NAME": "GPS BIIRM-4 (PRN 15)", "OBJECT_ID": "2007-047A", "EPOCH": "2025-12-07T06:27:37.335168", "MEAN_MOTION": 2.00564639, "ECCENTRICITY": 0.01643187, "INCLINATION": 53.9516, "RA_OF_ASC_NODE": 87.9845, "ARG_OF_PERICENTER": 85.1858, "MEAN_ANOMALY": 276.6734, "EPHEMERIS_TYPE": 0, "CLASSIFICATION_TYPE": "U", "NORAD_CAT_ID": 32260, "ELEMENT_SET_NO": 999, "REV_AT_EPOCH": 13296, "BSTAR": 0, "MEAN_MOTION_DOT": -2e-07, "MEAN_MOTION_DDOT": 0}, "tle": {"line1": "1 32260U 07047A   25341.26918212 -.00000020  00000+0  00000+0 0  9998", "line2": "2 32260  53.9516  87.9845 0164318  85.1858 276.6734  2.00564639132964"}}, "geometry": {"type": "Point", "coordinates": [-127.40850271300587, 38.509160353262985]}}]}